[
    {
        "Altitude(m)": 579454.5709806217,
        "Argument of Periapsis(deg)": -0.022603160782972403,
        "Eccentricity": 0.0,
        "Inclination(deg)": 97.0,
        "Latitude(deg)": -41.72623043694288,
        "Longitude(deg)": -138.59683658557012,
        "Mean Anomaly(deg)": -138.1409567308125,
        "RAAN(deg)": 150.0059470536185,
        "Satellite Name": "Starlink Shell 3 1904",
        "Satellite Number": 1904,
        "Semi-Major Axis(m)": 6938478.169268562,
        "Time(s)": 570
    },
    {
        "Altitude(m)": 579709.1586110695,
        "Argument of Periapsis(deg)": -0.02299970746337543,
        "Eccentricity": 0.0,
        "Inclination(deg)": 97.0,
        "Latitude(deg)": -42.34239758834719,
        "Longitude(deg)": -138.77574657061888,
        "Mean Anomaly(deg)": -137.51548053310745,
        "RAAN(deg)": 150.00605138789254,
        "Satellite Name": "Starlink Shell 3 1904",
        "Satellite Number": 1904,
        "Semi-Major Axis(m)": 6938478.169268562,
        "Time(s)": 580
    },
    {
        "Altitude(m)": 579963.4847820522,
        "Argument of Periapsis(deg)": -0.023396254143778456,
        "Eccentricity": 0.0,
        "Inclination(deg)": 97.0,
        "Latitude(deg)": -42.9583031265069,
        "Longitude(deg)": -138.95735082862876,
        "Mean Anomaly(deg)": -136.8900043354024,
        "RAAN(deg)": 150.00615572216654,
        "Satellite Name": "Starlink Shell 3 1904",
        "Satellite Number": 1904,
        "Semi-Major Axis(m)": 6938478.169268562,
        "Time(s)": 590
    },
    {
        "Altitude(m)": 580217.4498143586,
        "Argument of Periapsis(deg)": -0.023792800824181483,
        "Eccentricity": 0.0,
        "Inclination(deg)": 97.0,
        "Latitude(deg)": -43.57394008917383,
        "Longitude(deg)": -139.14176218628384,
        "Mean Anomaly(deg)": -136.2645281376974,
        "RAAN(deg)": 150.00626005644054,
        "Satellite Name": "Starlink Shell 3 1904",
        "Satellite Number": 1904,
        "Semi-Major Axis(m)": 6938478.169268562,
        "Time(s)": 600
    },
    {
        "Altitude(m)": 580470.9540280343,
        "Argument of Periapsis(deg)": -0.024189347504584503,
        "Eccentricity": 0.0,
        "Inclination(deg)": 97.0,
        "Latitude(deg)": -44.18930119420609,
        "Longitude(deg)": -139.32909925705843,
        "Mean Anomaly(deg)": -135.6390519399923,
        "RAAN(deg)": 150.00636439071457,
        "Satellite Name": "Starlink Shell 3 1904",
        "Satellite Number": 1904,
        "Semi-Major Axis(m)": 6938478.169268562,
        "Time(s)": 610
    },
    {
        "Altitude(m)": 580723.8977872025,
        "Argument of Periapsis(deg)": -0.02458589418498753,
        "Eccentricity": 0.0,
        "Inclination(deg)": 97.0,
        "Latitude(deg)": -44.80437881511546,
        "Longitude(deg)": -139.5194863228111,
        "Mean Anomaly(deg)": -135.01357574228726,
        "RAAN(deg)": 150.00646872498857,
        "Satellite Name": "Starlink Shell 3 1904",
        "Satellite Number": 1904,
        "Semi-Major Axis(m)": 6938478.169268562,
        "Time(s)": 620
    },
    {
        "Altitude(m)": 580976.1815447919,
        "Argument of Periapsis(deg)": -0.024982440865390556,
        "Eccentricity": 0.0,
        "Inclination(deg)": 97.0,
        "Latitude(deg)": -45.419164954622886,
        "Longitude(deg)": -139.71305492702507,
        "Mean Anomaly(deg)": -134.38809954458222,
        "RAAN(deg)": 150.0065730592626,
        "Satellite Name": "Starlink Shell 3 1904",
        "Satellite Number": 1904,
        "Semi-Major Axis(m)": 6938478.169268562,
        "Time(s)": 630
    },
    {
        "Altitude(m)": 581227.7058871819,
        "Argument of Periapsis(deg)": -0.025378987545793576,
        "Eccentricity": 0.0,
        "Inclination(deg)": 97.0,
        "Latitude(deg)": -46.033651216038834,
        "Longitude(deg)": -139.90994298013072,
        "Mean Anomaly(deg)": -133.76262334687718,
        "RAAN(deg)": 150.0066773935366,
        "Satellite Name": "Starlink Shell 3 1904",
        "Satellite Number": 1904,
        "Semi-Major Axis(m)": 6938478.169268562,
        "Time(s)": 640
    },
    {
        "Altitude(m)": 581478.3715787656,
        "Argument of Periapsis(deg)": -0.025775534226196602,
        "Eccentricity": 0.0,
        "Inclination(deg)": 97.0,
        "Latitude(deg)": -46.647828772255316,
        "Longitude(deg)": -140.11029642299752,
        "Mean Anomaly(deg)": -133.13714714917214,
        "RAAN(deg)": 150.00678172781056,
        "Satellite Name": "Starlink Shell 3 1904",
        "Satellite Number": 1904,
        "Semi-Major Axis(m)": 6938478.169268562,
        "Time(s)": 650
    },
    {
        "Altitude(m)": 581728.0796063164,
        "Argument of Periapsis(deg)": -0.026172080906599626,
        "Eccentricity": 0.0,
        "Inclination(deg)": 97.0,
        "Latitude(deg)": -47.26168833212319,
        "Longitude(deg)": -140.31426924967934,
        "Mean Anomaly(deg)": -132.51167095146715,
        "RAAN(deg)": 150.0068860620846,
        "Satellite Name": "Starlink Shell 3 1904",
        "Satellite Number": 1904,
        "Semi-Major Axis(m)": 6938478.169268562,
        "Time(s)": 660
    },
    {
        "Altitude(m)": 581976.7312232853,
        "Argument of Periapsis(deg)": -0.026568627587002652,
        "Eccentricity": 0.0,
        "Inclination(deg)": 97.0,
        "Latitude(deg)": -47.875220103956636,
        "Longitude(deg)": -140.522023574285,
        "Mean Anomaly(deg)": -131.8861947537621,
        "RAAN(deg)": 150.00699039635862,
        "Satellite Name": "Starlink Shell 3 1904",
        "Satellite Number": 1904,
        "Semi-Major Axis(m)": 6938478.169268562,
        "Time(s)": 670
    },
    {
        "Altitude(m)": 582224.2279938455,
        "Argument of Periapsis(deg)": -0.02696517426740568,
        "Eccentricity": 0.0,
        "Inclination(deg)": 97.0,
        "Latitude(deg)": -48.48841375587529,
        "Longitude(deg)": -140.73373125917982,
        "Mean Anomaly(deg)": -131.26071855605704,
        "RAAN(deg)": 150.00709473063262,
        "Satellite Name": "Starlink Shell 3 1904",
        "Satellite Number": 1904,
        "Semi-Major Axis(m)": 6938478.169268562,
        "Time(s)": 680
    },
    {
        "Altitude(m)": 582470.4718368092,
        "Argument of Periapsis(deg)": -0.0273617209478087,
        "Eccentricity": 0.0,
        "Inclination(deg)": 97.0,
        "Latitude(deg)": -49.101258372670515,
        "Longitude(deg)": -140.94957408358658,
        "Mean Anomaly(deg)": -130.63524235835203,
        "RAAN(deg)": 150.00719906490664,
        "Satellite Name": "Starlink Shell 3 1904",
        "Satellite Number": 1904,
        "Semi-Major Axis(m)": 6938478.169268562,
        "Time(s)": 690
    },
    {
        "Altitude(m)": 582715.365069292,
        "Argument of Periapsis(deg)": -0.027758267628211725,
        "Eccentricity": 0.0,
        "Inclination(deg)": 97.0,
        "Latitude(deg)": -49.71374240883718,
        "Longitude(deg)": -141.16974397082552,
        "Mean Anomaly(deg)": -130.0097661606469,
        "RAAN(deg)": 150.00730339918064,
        "Satellite Name": "Starlink Shell 3 1904",
        "Satellite Number": 1904,
        "Semi-Major Axis(m)": 6938478.169268562,
        "Time(s)": 700
    },
    {
        "Altitude(m)": 582958.8104501754,
        "Argument of Periapsis(deg)": -0.028154814308614752,
        "Eccentricity": 0.0,
        "Inclination(deg)": 97.0,
        "Latitude(deg)": -50.325853637368944,
        "Longitude(deg)": -141.39444479305178,
        "Mean Anomaly(deg)": -129.38428996294192,
        "RAAN(deg)": 150.00740773345464,
        "Satellite Name": "Starlink Shell 3 1904",
        "Satellite Number": 1904,
        "Semi-Major Axis(m)": 6938478.169268562,
        "Time(s)": 710
    },
    {
        "Altitude(m)": 583200.7112232817,
        "Argument of Periapsis(deg)": -0.02855136098901778,
        "Eccentricity": 0.0,
        "Inclination(deg)": 97.0,
        "Latitude(deg)": -50.93757909387775,
        "Longitude(deg)": -141.62389273441943,
        "Mean Anomaly(deg)": -128.75881376523694,
        "RAAN(deg)": 150.00751206772864,
        "Satellite Name": "Starlink Shell 3 1904",
        "Satellite Number": 1904,
        "Semi-Major Axis(m)": 6938478.169268562,
        "Time(s)": 720
    },
    {
        "Altitude(m)": 583440.97116034,
        "Argument of Periapsis(deg)": -0.028947907669420805,
        "Eccentricity": 0.0,
        "Inclination(deg)": 97.0,
        "Latitude(deg)": -51.54890501553202,
        "Longitude(deg)": -141.858316733017,
        "Mean Anomaly(deg)": -128.1333375675318,
        "RAAN(deg)": 150.00761640200267,
        "Satellite Name": "Starlink Shell 3 1904",
        "Satellite Number": 1904,
        "Semi-Major Axis(m)": 6938478.169268562,
        "Time(s)": 730
    },
    {
        "Altitude(m)": 583679.4946036015,
        "Argument of Periapsis(deg)": -0.029344454349823825,
        "Eccentricity": 0.0,
        "Inclination(deg)": 97.0,
        "Latitude(deg)": -52.15981677425039,
        "Longitude(deg)": -142.09796052281047,
        "Mean Anomaly(deg)": -127.5078613698268,
        "RAAN(deg)": 150.00772073627667,
        "Satellite Name": "Starlink Shell 3 1904",
        "Satellite Number": 1904,
        "Semi-Major Axis(m)": 6938478.169268562,
        "Time(s)": 740
    },
    {
        "Altitude(m)": 583916.1865081824,
        "Argument of Periapsis(deg)": -0.029741001030226845,
        "Eccentricity": 0.0,
        "Inclination(deg)": 97.0,
        "Latitude(deg)": -52.77029880352313,
        "Longitude(deg)": -142.34308325921887,
        "Mean Anomaly(deg)": -126.88238517212169,
        "RAAN(deg)": 150.0078250705507,
        "Satellite Name": "Starlink Shell 3 1904",
        "Satellite Number": 1904,
        "Semi-Major Axis(m)": 6938478.169268562,
        "Time(s)": 750
    }
]